ONEWEB-0578             
1 56067U 23043X   25035.55109324  .00000146  00000+0  32102-3 0  9991
2 56067  87.9344 343.1433 0001822  75.5676 284.5660 13.21826162 93400
ONEWEB-0579             
1 56068U 23043Y   25036.14719893 -.00000064  00000+0 -18566-3 0  9995
2 56068  87.9338 343.0153 0001758  92.0116 268.1220 13.21823545 93494
ONEWEB-0581             
1 56069U 23043Z   25036.51012475  .00000106  00000+0  24496-3 0  9993
2 56069  87.9128 327.7738 0001256  82.6514 277.4759 13.16597452 94513
ONEWEB-0609             
1 56070U 23043AA  25035.61671350 -.00000090  00000+0 -27361-3 0  9996
2 56070  87.9108 358.2965 0001962  83.2893 276.8460 13.15549327 91926
ONEWEB-0613             
1 56071U 23043AB  25035.61194883 -.00000027  00000+0 -10567-3 0  9998
2 56071  87.9111 358.3027 0001893  91.4632 268.6715 13.15552225 91929
ONEWEB-0630             
1 56072U 23043AC  25035.45508699 -.00000068  00000+0 -21384-3 0  9999
2 56072  87.9109 358.3163 0001996  91.0526 269.0833 13.15548714 90989
ONEWEB-0632             
1 56073U 23043AD  25035.45032595 -.00000064  00000+0 -20427-3 0  9990
2 56073  87.9111 358.3368 0001550  85.2373 274.8935 13.15550902 90980
ONEWEB-0633             
1 56074U 23043AE  25035.82427812  .00000053  00000+0  10670-3 0  9997
2 56074  87.9104 358.2357 0002236  91.3286 268.8100 13.15552085 91929
